     3.04           N: GNSS NAV DATA    G: GPS              RINEX VERSION / TYPE
cnvtToRINEX 3.14.0  convertToRINEX OPR  20220915 175613 UTC PGM / RUN BY / DATE 
----------------------------------------------------------- COMMENT             
GPSA   0.8382D-08  0.2235D-07 -0.5960D-07 -0.1192D-06       IONOSPHERIC CORR    
GPSB   0.9216D+05  0.1147D+06 -0.6554D+05 -0.5898D+06       IONOSPHERIC CORR    
GPUT -0.9313225746D-09 0.000000000D+00 589824 2222          TIME SYSTEM CORR    
    18                                                      LEAP SECONDS        
                                                            END OF HEADER       
G14 2022 08 11 12 00 00-0.109632965177D-03 0.136424205266D-11 0.000000000000D+00
     0.310000000000D+02-0.260312500000D+02 0.486877423256D-08-0.379655971818D+00
    -0.130198895931D-05 0.219930591993D-02 0.840239226818D-05 0.515365441513D+04
     0.388800000000D+06 0.447034835815D-07-0.829752086985D+00 0.502914190292D-07
     0.951562004743D+00 0.211468750000D+03-0.305661533675D+01-0.809640867649D-08
    -0.548594279725D-09 0.100000000000D+01 0.222200000000D+04 0.000000000000D+00
     0.200000000000D+01 0.000000000000D+00-0.791624188423D-08 0.543000000000D+03
     0.381618000000D+06 0.400000000000D+01 0.000000000000D+00 0.000000000000D+00
G22 2022 08 11 12 00 00 0.307971611619D-03 0.659383658785D-11 0.000000000000D+00
     0.780000000000D+02-0.598750000000D+02 0.393516391537D-08 0.306181691022D+01
    -0.294297933578D-05 0.134400288807D-01 0.122245401144D-04 0.515373084068D+04
     0.388800000000D+06 0.143423676491D-06-0.287856453846D+01-0.745058059692D-07
     0.962138004224D+00 0.140906250000D+03-0.184511752288D+01-0.735102048522D-08
     0.460733477113D-09 0.100000000000D+01 0.222200000000D+04 0.000000000000D+00
     0.200000000000D+01 0.000000000000D+00-0.791624188423D-08 0.780000000000D+02
     0.381618000000D+06 0.400000000000D+01 0.000000000000D+00 0.000000000000D+00